NORAD_CAT_ID,OBJECT_NAME,OBJECT_TYPE,EPOCH,MEAN_MOTION,ECCENTRICITY,INCLINATION,RA_OF_ASC_NODE,ARG_OF_PERICENTER,MEAN_ANOMALY,BSTAR,MEAN_MOTION_DOT,MEAN_MOTION_DDOT,TLE_LINE0,TLE_LINE1,TLE_LINE2,SEMIMAJOR_AXIS,PERIOD,APOGEE,PERIGEE,DECAYED
51892.0,STARLINK-3587,PAYLOAD,2024-03-28 22:18:10,15.088382,0.0001451,53.2169,309.8492,79.0647,281.0508,-5.3459e-05,-1.139e-05,0.0,0 STARLINK-3587,1 51892U 22022AS  24088.92928478 -.00001139  00000-0 -53459-4 0  9990,2 51892  53.2169 309.8492 0001451  79.0647 281.0508 15.08838200115941,6917.886,95.438,540.755,538.747,0.0
51892.0,STARLINK-3587,PAYLOAD,2024-03-29 07:50:28,15.08852374,0.0001397,53.2176,308.0647,82.9958,277.1193,0.00013327,1.834e-05,0.0,0 STARLINK-3587,1 51892U 22022AS  24089.32671749  .00001834  00000-0  13327-3 0  9990,2 51892  53.2176 308.0647 0001397  82.9958 277.1193 15.08852374116001,6917.843,95.437,540.674,538.741,0.0
51892.0,STARLINK-3587,PAYLOAD,2024-03-29 14:12:01,15.0883167,0.0001282,53.219,306.8733,83.2339,276.8799,2.7738e-05,1.54e-06,0.0,0 STARLINK-3587,1 51892U 22022AS  24089.59168903  .00000154  00000-0  27738-4 0  9998,2 51892  53.2190 306.8733 0001282  83.2339 276.8799 15.08831670116047,6917.906,95.438,540.658,538.884,0.0
51892.0,STARLINK-3587,PAYLOAD,2024-03-29 20:33:34,15.08840117,0.000103,53.2172,305.6857,84.8684,275.2426,9.3154e-05,1.195e-05,0.0,0 STARLINK-3587,1 51892U 22022AS  24089.85664399  .00001195  00000-0  93154-4 0  9998,2 51892  53.2172 305.6857 0001030  84.8684 275.2426 15.08840117116082,6917.88,95.438,540.458,539.032,0.0
51892.0,STARLINK-3587,PAYLOAD,2024-03-30 07:41:15,15.0885145,0.0001198,53.2158,303.6022,86.3233,273.7896,0.00026581,3.946e-05,0.0,0 STARLINK-3587,1 51892U 22022AS  24090.32031834  .00003946  00000-0  26581-3 0  9999,2 51892  53.2158 303.6022 0001198  86.3233 273.7896 15.08851450116154,6917.845,95.437,540.539,538.882,0.0
51892.0,STARLINK-3587,PAYLOAD,2024-03-30 20:24:21,15.08837601,0.0001203,53.2175,301.2255,77.7101,282.4025,8.9898e-05,1.143e-05,0.0,0 STARLINK-3587,1 51892U 22022AS  24090.85024581  .00001143  00000-0  89898-4 0  9996,2 51892  53.2175 301.2255 0001203  77.7101 282.4025 15.08837601116232,6917.888,95.438,540.585,538.92,0.0
51892.0,STARLINK-3587,PAYLOAD,2024-03-31 07:32:03,15.08850584,0.0001453,53.217,299.1421,89.3375,270.7784,0.00047865,7.34e-05,0.0,0 STARLINK-3587,1 51892U 22022AS  24091.31392364  .00007340  00000-0  47865-3 0  9997,2 51892  53.2170 299.1421 0001453  89.3375 270.7784 15.08850584116301,6917.848,95.437,540.718,538.708,0.0
51892.0,STARLINK-3587,PAYLOAD,2024-03-31 20:15:08,15.08847047,0.0001458,53.2181,296.7632,91.4367,268.6792,0.00032326,4.861e-05,0.0,0 STARLINK-3587,1 51892U 22022AS  24091.84384379  .00004861  00000-0  32326-3 0  9993,2 51892  53.2181 296.7632 0001458  91.4367 268.6792 15.08847047116383,6917.859,95.437,540.732,538.715,0.0
51892.0,STARLINK-3587,PAYLOAD,2024-04-01 13:44:22,15.08844851,0.0001509,53.2182,293.4909,93.887,266.2294,0.00021171,3.083e-05,0.0,0 STARLINK-3587,1 51892U 22022AS  24092.57248333  .00003083  00000-0  21171-3 0  9994,2 51892  53.2182 293.4909 0001509  93.8870 266.2294 15.08844851116490,6917.866,95.437,540.774,538.687,0.0
51892.0,STARLINK-3587,PAYLOAD,2024-04-01 20:05:55,15.08838805,0.0001464,53.2185,292.3017,94.3764,265.7396,0.00011993,1.621e-05,0.0,0 STARLINK-3587,1 51892U 22022AS  24092.83744564  .00001621  00000-0  11993-3 0  9997,2 51892  53.2185 292.3017 0001464  94.3764 265.7396 15.08838805116533,6917.884,95.438,540.762,538.736,0.0
51892.0,STARLINK-3587,PAYLOAD,2024-04-02 05:38:13,15.08843261,0.0001389,53.2184,290.5175,92.295,267.8202,6.6364e-05,7.68e-06,0.0,0 STARLINK-3587,1 51892U 22022AS  24093.23488251  .00000768  00000-0  66364-4 0  9994,2 51892  53.2184 290.5175 0001389  92.2950 267.8202 15.08843261116594,6917.87,95.437,540.696,538.775,0.0
51892.0,STARLINK-3587,PAYLOAD,2024-04-02 19:56:42,15.08832927,0.0001309,53.2192,287.8456,91.0106,269.1036,5.6428e-05,6.1e-06,0.0,0 STARLINK-3587,1 51892U 22022AS  24093.83105320  .00000610  00000-0  56428-4 0  9999,2 51892  53.2192 287.8456 0001309  91.0106 269.1036 15.08832927116683,6917.902,95.438,540.673,538.861,0.0
51892.0,STARLINK-3587,PAYLOAD,2024-04-03 05:29:01,15.08841466,0.0001428,53.2188,286.0611,95.9927,264.1228,1.331e-05,-7.6e-07,0.0,0 STARLINK-3587,1 51892U 22022AS  24094.22848799 -.00000076  00000-0  13310-4 0  9997,2 51892  53.2188 286.0611 0001428  95.9927 264.1228 15.08841466116741,6917.876,95.437,540.729,538.753,0.0
51892.0,STARLINK-3587,PAYLOAD,2024-04-03 11:50:33,15.088377,0.0001367,53.2187,284.8714,100.4221,259.6925,8.9061e-05,1.13e-05,0.0,0 STARLINK-3587,1 51892U 22022AS  24094.49344841  .00001130  00000-0  89061-4 0  9992,2 51892  53.2187 284.8714 0001367 100.4221 259.6925 15.08837700116784,6917.887,95.438,540.698,538.807,0.0
51892.0,STARLINK-3587,PAYLOAD,2024-04-03 21:22:53,15.08835143,0.0001255,53.2186,283.0873,98.4325,261.681,0.00011125,1.483e-05,0.0,0 STARLINK-3587,1 51892U 22022AS  24094.89089142  .00001483  00000-0  11125-3 0  9992,2 51892  53.2186 283.0873 0001255  98.4325 261.6810 15.08835143116849,6917.895,95.438,540.628,538.892,0.0
51892.0,STARLINK-3587,PAYLOAD,2024-04-04 05:19:48,15.08841545,0.0001374,53.2184,281.5996,97.7239,262.3909,7.4935e-05,9.05e-06,0.0,0 STARLINK-3587,1 51892U 22022AS  24095.22208885  .00000905  00000-0  74935-4 0  9994,2 51892  53.2184 281.5996 0001374  97.7239 262.3909 15.08841545116899,6917.876,95.437,540.691,538.79,0.0
51892.0,STARLINK-3587,PAYLOAD,2024-04-04 19:38:17,15.08832929,0.0001368,53.2184,278.9234,95.7432,264.3716,0.00015068,2.111e-05,0.0,0 STARLINK-3587,1 51892U 22022AS  24095.81825483  .00002111  00000-0  15068-3 0  9990,2 51892  53.2184 278.9234 0001368  95.7432 264.3716 15.08832929116984,6917.902,95.438,540.713,538.821,0.0
51892.0,STARLINK-3587,PAYLOAD,2024-04-04 21:13:40,15.08837695,0.0001386,53.2185,278.6258,94.807,265.3081,9.2459e-05,1.184e-05,0.0,0 STARLINK-3587,1 51892U 22022AS  24095.88449344  .00001184  00000-0  92459-4 0  9994,2 51892  53.2185 278.6258 0001386  94.8070 265.3081 15.08837695116998,6917.887,95.438,540.711,538.794,0.0
51892.0,STARLINK-3587,PAYLOAD,2024-04-05 05:10:35,15.08846159,0.000137,53.2184,277.1384,88.8654,271.2495,0.00013021,1.785e-05,0.0,0 STARLINK-3587,1 51892U 22022AS  24096.21568698  .00001785  00000-0  13021-3 0  9990,2 51892  53.2184 277.1384 0001370  88.8654 271.2495 15.08846159117042,6917.862,95.437,540.674,538.779,0.0
51892.0,STARLINK-3587,PAYLOAD,2024-04-05 11:32:07,15.08844728,0.000139,53.2182,275.9496,87.224,272.8911,0.0001361,1.879e-05,0.0,0 STARLINK-3587,1 51892U 22022AS  24096.48064753  .00001879  00000-0  13610-3 0  9990,2 51892  53.2182 275.9496 0001390  87.2240 272.8911 15.08844728117080,6917.866,95.437,540.693,538.769,0.0
51892.0,STARLINK-3587,PAYLOAD,2024-04-05 19:29:03,15.08843296,0.0001427,53.2188,274.4624,90.016,270.0996,0.00012314,1.673e-05,0.0,0 STARLINK-3587,1 51892U 22022AS  24096.81184839  .00001673  00000-0  12314-3 0  9997,2 51892  53.2188 274.4624 0001427  90.0160 270.0996 15.08843296117135,6917.87,95.437,540.722,538.748,0.0
51892.0,STARLINK-3587,PAYLOAD,2024-04-06 11:22:55,15.08841924,0.0001942,53.2195,271.489,85.6034,274.518,8.5821e-05,1.078e-05,0.0,0 STARLINK-3587,1 51892U 22022AS  24097.47425036  .00001078  00000-0  85821-4 0  9990,2 51892  53.2195 271.4890 0001942  85.6034 274.5180 15.08841924117238,6917.875,95.437,541.083,538.396,0.0
51892.0,STARLINK-3587,PAYLOAD,2024-04-06 17:44:27,15.08839026,0.0001576,53.2186,270.299,88.3671,271.7502,8.2431e-05,1.024e-05,0.0,0 STARLINK-3587,1 51892U 22022AS  24097.73921170  .00001024  00000-0  82431-4 0  9994,2 51892  53.2186 270.2990 0001576  88.3671 271.7502 15.08839026117277,6917.883,95.438,540.839,538.658,0.0
51892.0,STARLINK-3587,PAYLOAD,2024-04-07 11:13:42,15.08842506,0.0001654,53.2173,267.0283,88.2667,271.8514,6.5852e-05,7.6e-06,0.0,0 STARLINK-3587,1 51892U 22022AS  24098.46784910  .00000760  00000-0  65852-4 0  9998,2 51892  53.2173 267.0283 0001654  88.2667 271.8514 15.08842506117386,6917.873,95.437,540.882,538.594,0.0
51892.0,STARLINK-3587,PAYLOAD,2024-04-07 17:35:14,15.08841386,0.0001631,53.2169,265.8381,88.5857,271.5322,6.527e-05,7.51e-06,0.0,0 STARLINK-3587,1 51892U 22022AS  24098.73280908  .00000751  00000-0  65270-4 0  9990,2 51892  53.2169 265.8381 0001631  88.5857 271.5322 15.08841386117429,6917.876,95.437,540.869,538.613,0.0
51892.0,STARLINK-3587,PAYLOAD,2024-04-08 04:42:56,15.08843828,0.0001411,53.2166,263.7559,101.9286,258.1865,2.9919e-05,1.88e-06,0.0,0 STARLINK-3587,1 51892U 22022AS  24099.19648780  .00000188  00000-0  29919-4 0  9991,2 51892  53.2166 263.7559 0001411 101.9286 258.1865 15.08843828117495,6917.869,95.437,540.71,538.758,0.0
51892.0,STARLINK-3587,PAYLOAD,2024-04-08 20:36:48,15.08836618,0.0001651,53.2173,260.783,89.9893,270.1288,6.2058e-05,7e-06,0.0,0 STARLINK-3587,1 51892U 22022AS  24099.85889407  .00000700  00000-0  62058-4 0  9998,2 51892  53.2173 260.7830 0001651  89.9893 270.1288 15.08836618117590,6917.891,95.438,540.898,538.614,0.0
51892.0,STARLINK-3587,PAYLOAD,2024-04-09 10:55:16,15.08837693,0.0001649,53.2182,258.1065,90.3796,269.7385,6.7073e-05,7.8e-06,0.0,0 STARLINK-3587,1 51892U 22022AS  24100.45505450  .00000780  00000-0  67073-4 0  9990,2 51892  53.2182 258.1065 0001649  90.3796 269.7385 15.08837693117682,6917.887,95.438,540.893,538.612,0.0
51892.0,STARLINK-3587,PAYLOAD,2024-04-09 20:27:35,15.08836441,0.0001683,53.2194,256.3222,92.7621,267.3564,4.8238e-05,4.8e-06,0.0,0 STARLINK-3587,1 51892U 22022AS  24100.85249639  .00000480  00000-0  48238-4 0  9997,2 51892  53.2194 256.3222 0001683  92.7621 267.3564 15.08836441117741,6917.891,95.438,540.921,538.592,0.0
51892.0,STARLINK-3587,PAYLOAD,2024-04-10 10:46:02,15.08853935,0.0001065,53.2181,253.6462,90.6406,269.4708,0.00022427,3.285e-05,0.0,0 STARLINK-3587,1 51892U 22022AS  24101.44863651  .00003285  00000-0  22427-3 0  9996,2 51892  53.2181 253.6462 0001065  90.6406 269.4708 15.08853935117835,6917.838,95.437,540.44,538.966,0.0
